[
    {
        "Altitude(m)": 555226.4715167593,
        "Argument of Periapsis(deg)": 0.013245982221427002,
        "Eccentricity": 0.0,
        "Inclination(deg)": 53.0,
        "Latitude(deg)": 31.124556561020565,
        "Longitude(deg)": 90.32883004527655,
        "Mean Anomaly(deg)": 40.183185735155185,
        "RAAN(deg)": 164.98028673705602,
        "Satellite Name": "Starlink Shell 1 727",
        "Satellite Number": 727,
        "Semi-Major Axis(m)": 6931778.249405717,
        "Time(s)": 380
    },
    {
        "Altitude(m)": 555302.6518404497,
        "Argument of Periapsis(deg)": 0.013594560700938237,
        "Eccentricity": 0.0,
        "Inclination(deg)": 53.0,
        "Latitude(deg)": 31.571869103178273,
        "Longitude(deg)": 90.80314241486674,
        "Mean Anomaly(deg)": 40.810016938711875,
        "RAAN(deg)": 164.97976796697856,
        "Satellite Name": "Starlink Shell 1 727",
        "Satellite Number": 727,
        "Semi-Major Axis(m)": 6931778.249405717,
        "Time(s)": 390
    },
    {
        "Altitude(m)": 555379.705206247,
        "Argument of Periapsis(deg)": 0.013943139180449475,
        "Eccentricity": 0.0,
        "Inclination(deg)": 53.0,
        "Latitude(deg)": 32.01705069180949,
        "Longitude(deg)": 91.2823848434788,
        "Mean Anomaly(deg)": 41.4368481422686,
        "RAAN(deg)": 164.97924919690107,
        "Satellite Name": "Starlink Shell 1 727",
        "Satellite Number": 727,
        "Semi-Major Axis(m)": 6931778.249405717,
        "Time(s)": 400
    },
    {
        "Altitude(m)": 555457.5767747643,
        "Argument of Periapsis(deg)": 0.014291717659960712,
        "Eccentricity": 0.0,
        "Inclination(deg)": 53.0,
        "Latitude(deg)": 32.4600442601426,
        "Longitude(deg)": 91.76666790942765,
        "Mean Anomaly(deg)": 42.0636793458253,
        "RAAN(deg)": 164.9787304268236,
        "Satellite Name": "Starlink Shell 1 727",
        "Satellite Number": 727,
        "Semi-Major Axis(m)": 6931778.249405717,
        "Time(s)": 410
    },
    {
        "Altitude(m)": 555536.2114944196,
        "Argument of Periapsis(deg)": 0.014640296139471948,
        "Eccentricity": 0.0,
        "Inclination(deg)": 53.0,
        "Latitude(deg)": 32.90079142770875,
        "Longitude(deg)": 92.25610286738578,
        "Mean Anomaly(deg)": 42.69051054938204,
        "RAAN(deg)": 164.97821165674614,
        "Satellite Name": "Starlink Shell 1 727",
        "Satellite Number": 727,
        "Semi-Major Axis(m)": 6931778.249405717,
        "Time(s)": 420
    },
    {
        "Altitude(m)": 555615.5541301959,
        "Argument of Periapsis(deg)": 0.014988874618983185,
        "Eccentricity": 0.0,
        "Inclination(deg)": 53.0,
        "Latitude(deg)": 33.33923246743368,
        "Longitude(deg)": 92.75080211298265,
        "Mean Anomaly(deg)": 43.317341752938766,
        "RAAN(deg)": 164.97769288666865,
        "Satellite Name": "Starlink Shell 1 727",
        "Satellite Number": 727,
        "Semi-Major Axis(m)": 6931778.249405717,
        "Time(s)": 430
    },
    {
        "Altitude(m)": 555695.5492924281,
        "Argument of Periapsis(deg)": 0.015337453098494424,
        "Eccentricity": 0.0,
        "Inclination(deg)": 53.0,
        "Latitude(deg)": 33.77530627267378,
        "Longitude(deg)": 93.25087964125568,
        "Mean Anomaly(deg)": 43.94417295649546,
        "RAAN(deg)": 164.9771741165912,
        "Satellite Name": "Starlink Shell 1 727",
        "Satellite Number": 727,
        "Semi-Major Axis(m)": 6931778.249405717,
        "Time(s)": 440
    },
    {
        "Altitude(m)": 555776.1414656389,
        "Argument of Periapsis(deg)": 0.01568603157800566,
        "Eccentricity": 0.0,
        "Inclination(deg)": 53.0,
        "Latitude(deg)": 34.2089503242706,
        "Longitude(deg)": 93.75644998564016,
        "Mean Anomaly(deg)": 44.57100416005218,
        "RAAN(deg)": 164.97665534651372,
        "Satellite Name": "Starlink Shell 1 727",
        "Satellite Number": 727,
        "Semi-Major Axis(m)": 6931778.249405717,
        "Time(s)": 450
    },
    {
        "Altitude(m)": 555857.2750373918,
        "Argument of Periapsis(deg)": 0.0160346100575169,
        "Eccentricity": 0.0,
        "Inclination(deg)": 53.0,
        "Latitude(deg)": 34.6401006577075,
        "Longitude(deg)": 94.26762866279293,
        "Mean Anomaly(deg)": 45.197835363608895,
        "RAAN(deg)": 164.97613657643623,
        "Satellite Name": "Starlink Shell 1 727",
        "Satellite Number": 727,
        "Semi-Major Axis(m)": 6931778.249405717,
        "Time(s)": 460
    },
    {
        "Altitude(m)": 555938.8943271305,
        "Argument of Periapsis(deg)": 0.016383188537028134,
        "Eccentricity": 0.0,
        "Inclination(deg)": 53.0,
        "Latitude(deg)": 35.06869183046072,
        "Longitude(deg)": 94.78453260989782,
        "Mean Anomaly(deg)": 45.82466656716563,
        "RAAN(deg)": 164.97561780635877,
        "Satellite Name": "Starlink Shell 1 727",
        "Satellite Number": 727,
        "Semi-Major Axis(m)": 6931778.249405717,
        "Time(s)": 470
    },
    {
        "Altitude(m)": 556020.9436150059,
        "Argument of Periapsis(deg)": 0.01673176701653937,
        "Eccentricity": 0.0,
        "Inclination(deg)": 53.0,
        "Latitude(deg)": 35.49465688964443,
        "Longitude(deg)": 95.30727910108122,
        "Mean Anomaly(deg)": 46.45149777072234,
        "RAAN(deg)": 164.9750990362813,
        "Satellite Name": "Starlink Shell 1 727",
        "Satellite Number": 727,
        "Semi-Major Axis(m)": 6931778.249405717,
        "Time(s)": 480
    },
    {
        "Altitude(m)": 556103.3671707087,
        "Argument of Periapsis(deg)": 0.017080345496050607,
        "Eccentricity": 0.0,
        "Inclination(deg)": 53.0,
        "Latitude(deg)": 35.917927340061546,
        "Longitude(deg)": 95.83598616817201,
        "Mean Anomaly(deg)": 47.078328974279046,
        "RAAN(deg)": 164.97458026620382,
        "Satellite Name": "Starlink Shell 1 727",
        "Satellite Number": 727,
        "Semi-Major Axis(m)": 6931778.249405717,
        "Time(s)": 490
    },
    {
        "Altitude(m)": 556186.1092822145,
        "Argument of Periapsis(deg)": 0.017428923975561842,
        "Eccentricity": 0.0,
        "Inclination(deg)": 53.0,
        "Latitude(deg)": 36.338433112780734,
        "Longitude(deg)": 96.37077301239655,
        "Mean Anomaly(deg)": 47.70516017783576,
        "RAAN(deg)": 164.97406149612635,
        "Satellite Name": "Starlink Shell 1 727",
        "Satellite Number": 727,
        "Semi-Major Axis(m)": 6931778.249405717,
        "Time(s)": 500
    },
    {
        "Altitude(m)": 556269.1142844964,
        "Argument of Periapsis(deg)": 0.01777750245507308,
        "Eccentricity": 0.0,
        "Inclination(deg)": 53.0,
        "Latitude(deg)": 36.756102534371365,
        "Longitude(deg)": 96.9117588935806,
        "Mean Anomaly(deg)": 48.331991381392456,
        "RAAN(deg)": 164.9735427260489,
        "Satellite Name": "Starlink Shell 1 727",
        "Satellite Number": 727,
        "Semi-Major Axis(m)": 6931778.249405717,
        "Time(s)": 510
    },
    {
        "Altitude(m)": 556352.3265881799,
        "Argument of Periapsis(deg)": 0.018126080934584315,
        "Eccentricity": 0.0,
        "Inclination(deg)": 53.0,
        "Latitude(deg)": 37.17086229694014,
        "Longitude(deg)": 97.45906352204085,
        "Mean Anomaly(deg)": 48.9588225849492,
        "RAAN(deg)": 164.9730239559714,
        "Satellite Name": "Starlink Shell 1 727",
        "Satellite Number": 727,
        "Semi-Major Axis(m)": 6931778.249405717,
        "Time(s)": 520
    },
    {
        "Altitude(m)": 556435.690708093,
        "Argument of Periapsis(deg)": 0.018474659414095554,
        "Eccentricity": 0.0,
        "Inclination(deg)": 53.0,
        "Latitude(deg)": 37.58263742912418,
        "Longitude(deg)": 98.01280743970742,
        "Mean Anomaly(deg)": 49.58565378850592,
        "RAAN(deg)": 164.97250518589394,
        "Satellite Name": "Starlink Shell 1 727",
        "Satellite Number": 727,
        "Semi-Major Axis(m)": 6931778.249405717,
        "Time(s)": 530
    },
    {
        "Altitude(m)": 556519.1512917256,
        "Argument of Periapsis(deg)": 0.018823237893606792,
        "Eccentricity": 0.0,
        "Inclination(deg)": 53.0,
        "Latitude(deg)": 37.991351268209506,
        "Longitude(deg)": 98.57311087700687,
        "Mean Anomaly(deg)": 50.21248499206262,
        "RAAN(deg)": 164.97198641581647,
        "Satellite Name": "Starlink Shell 1 727",
        "Satellite Number": 727,
        "Semi-Major Axis(m)": 6931778.249405717,
        "Time(s)": 540
    },
    {
        "Altitude(m)": 556602.6531475915,
        "Argument of Periapsis(deg)": 0.019171816373118027,
        "Eccentricity": 0.0,
        "Inclination(deg)": 53.0,
        "Latitude(deg)": 38.396925433555964,
        "Longitude(deg)": 99.14009411065052,
        "Mean Anomaly(deg)": 50.83931619561931,
        "RAAN(deg)": 164.97146764573898,
        "Satellite Name": "Starlink Shell 1 727",
        "Satellite Number": 727,
        "Semi-Major Axis(m)": 6931778.249405717,
        "Time(s)": 550
    },
    {
        "Altitude(m)": 556686.1412734443,
        "Argument of Periapsis(deg)": 0.019520394852629266,
        "Eccentricity": 0.0,
        "Inclination(deg)": 53.0,
        "Latitude(deg)": 38.79927980152386,
        "Longitude(deg)": 99.7138778088413,
        "Mean Anomaly(deg)": 51.46614739917604,
        "RAAN(deg)": 164.97094887566152,
        "Satellite Name": "Starlink Shell 1 727",
        "Satellite Number": 727,
        "Semi-Major Axis(m)": 6931778.249405717,
        "Time(s)": 560
    }
]